CCSDS_OMM_VERS = 2.0
CREATION_DATE  = 
ORIGINATOR     = 

OBJECT_NAME    = CORAL
OBJECT_ID      = 1998-067YA
CENTER_NAME    = EARTH
REF_FRAME      = TEME
TIME_SYSTEM    = UTC
MEAN_ELEMENT_THEORY = SGP/SGP4

EPOCH          = 2026-04-02T00:13:32.655072
MEAN_MOTION    = 15.58432095
ECCENTRICITY   = .0013294
INCLINATION    = 51.6293
RA_OF_ASC_NODE = 314.8808
ARG_OF_PERICENTER = 261.1138
MEAN_ANOMALY   = 98.8349

EPHEMERIS_TYPE = 0
CLASSIFICATION_TYPE = U
NORAD_CAT_ID   = 67684
ELEMENT_SET_NO = 999
REV_AT_EPOCH   = 842
BSTAR          = .12221E-2
MEAN_MOTION_DOT = .95906E-3
MEAN_MOTION_DDOT = 0

CCSDS_OMM_VERS = 2.0
CREATION_DATE  = 
ORIGINATOR     = 

OBJECT_NAME    = GXIBA-1
OBJECT_ID      = 1998-067YB
CENTER_NAME    = EARTH
REF_FRAME      = TEME
TIME_SYSTEM    = UTC
MEAN_ELEMENT_THEORY = SGP/SGP4

EPOCH          = 2026-04-01T21:14:06.336384
MEAN_MOTION    = 15.54391194
ECCENTRICITY   = .00122958
INCLINATION    = 51.6317
RA_OF_ASC_NODE = 316.2995
ARG_OF_PERICENTER = 267.6907
MEAN_ANOMALY   = 92.2676

EPHEMERIS_TYPE = 0
CLASSIFICATION_TYPE = U
NORAD_CAT_ID   = 67685
ELEMENT_SET_NO = 999
REV_AT_EPOCH   = 839
BSTAR          = .72618328E-3
MEAN_MOTION_DOT = .48495E-3
MEAN_MOTION_DDOT = 0

CCSDS_OMM_VERS = 2.0
CREATION_DATE  = 
ORIGINATOR     = 

OBJECT_NAME    = UITMSAT-2
OBJECT_ID      = 1998-067YC
CENTER_NAME    = EARTH
REF_FRAME      = TEME
TIME_SYSTEM    = UTC
MEAN_ELEMENT_THEORY = SGP/SGP4

EPOCH          = 2026-04-01T23:54:20.448864
MEAN_MOTION    = 15.55460720
ECCENTRICITY   = .0009352
INCLINATION    = 51.6309
RA_OF_ASC_NODE = 315.5446
ARG_OF_PERICENTER = 241.4551
MEAN_ANOMALY   = 118.5499

EPHEMERIS_TYPE = 0
CLASSIFICATION_TYPE = U
NORAD_CAT_ID   = 67686
ELEMENT_SET_NO = 999
REV_AT_EPOCH   = 841
BSTAR          = .8647E-3
MEAN_MOTION_DOT = .60177E-3
MEAN_MOTION_DDOT = 0

CCSDS_OMM_VERS = 2.0
CREATION_DATE  = 
ORIGINATOR     = 

OBJECT_NAME    = HMU-SAT2
OBJECT_ID      = 1998-067YD
CENTER_NAME    = EARTH
REF_FRAME      = TEME
TIME_SYSTEM    = UTC
MEAN_ELEMENT_THEORY = SGP/SGP4

EPOCH          = 2026-04-02T00:27:21.530880
MEAN_MOTION    = 15.54142799
ECCENTRICITY   = .0008907
INCLINATION    = 51.6316
RA_OF_ASC_NODE = 315.6984
ARG_OF_PERICENTER = 244.0786
MEAN_ANOMALY   = 115.9287

EPHEMERIS_TYPE = 0
CLASSIFICATION_TYPE = U
NORAD_CAT_ID   = 67687
ELEMENT_SET_NO = 999
REV_AT_EPOCH   = 833
BSTAR          = .72719E-3
MEAN_MOTION_DOT = .48045E-3
MEAN_MOTION_DDOT = 0

CCSDS_OMM_VERS = 2.0
CREATION_DATE  = 
ORIGINATOR     = 

OBJECT_NAME    = LEOPARD
OBJECT_ID      = 1998-067YE
CENTER_NAME    = EARTH
REF_FRAME      = TEME
TIME_SYSTEM    = UTC
MEAN_ELEMENT_THEORY = SGP/SGP4

EPOCH          = 2026-04-02T00:05:42.209664
MEAN_MOTION    = 15.54979490
ECCENTRICITY   = .0009095
INCLINATION    = 51.6310
RA_OF_ASC_NODE = 315.5981
ARG_OF_PERICENTER = 241.6191
MEAN_ANOMALY   = 118.3884

EPHEMERIS_TYPE = 0
CLASSIFICATION_TYPE = U
NORAD_CAT_ID   = 67688
ELEMENT_SET_NO = 999
REV_AT_EPOCH   = 833
BSTAR          = .79751E-3
MEAN_MOTION_DOT = .54438E-3
MEAN_MOTION_DDOT = 0

CCSDS_OMM_VERS = 2.0
CREATION_DATE  = 
ORIGINATOR     = 

OBJECT_NAME    = CREW DRAGON 12
OBJECT_ID      = 2026-031A
CENTER_NAME    = EARTH
REF_FRAME      = TEME
TIME_SYSTEM    = UTC
MEAN_ELEMENT_THEORY = SGP/SGP4

EPOCH          = 2026-04-01T21:00:31.002048
MEAN_MOTION    = 15.48704825
ECCENTRICITY   = .0006236
INCLINATION    = 51.6331
RA_OF_ASC_NODE = 317.7347
ARG_OF_PERICENTER = 261.1612
MEAN_ANOMALY   = 98.8670

EPHEMERIS_TYPE = 0
CLASSIFICATION_TYPE = U
NORAD_CAT_ID   = 67796
ELEMENT_SET_NO = 999
REV_AT_EPOCH   = 55989
BSTAR          = .16573E-3
MEAN_MOTION_DOT = .8601E-4
MEAN_MOTION_DDOT = 0

CCSDS_OMM_VERS = 2.0
CREATION_DATE  = 
ORIGINATOR     = 

OBJECT_NAME    = PROGRESS-MS 33
OBJECT_ID      = 2026-058A
CENTER_NAME    = EARTH
REF_FRAME      = TEME
TIME_SYSTEM    = UTC
MEAN_ELEMENT_THEORY = SGP/SGP4

EPOCH          = 2026-04-01T21:00:31.002048
MEAN_MOTION    = 15.48704825
ECCENTRICITY   = .0006236
INCLINATION    = 51.6331
RA_OF_ASC_NODE = 317.7347
ARG_OF_PERICENTER = 261.1612
MEAN_ANOMALY   = 98.8670

EPHEMERIS_TYPE = 0
CLASSIFICATION_TYPE = U
NORAD_CAT_ID   = 68319
ELEMENT_SET_NO = 999
REV_AT_EPOCH   = 140
BSTAR          = .16573E-3
MEAN_MOTION_DOT = .8601E-4
MEAN_MOTION_DDOT = 0

